start=new Date('2022-01-27T00:00:00.000Z').valueOf();
sats=[{"RCS_SIZE":"LARGE","TLE_LINE1":"1 46557U 20070AB  22026.50195755  .00000074  00000-0  23818-4 0  9992","TLE_LINE2":"2 46557  53.0551  69.6938 0001136  79.6840 280.4277 15.06407992 73153","ECCENTRICITY":"0.00011360","SITE":"AFETR","INCLINATION":"53.0551","APOAPSIS":"547.976","ARG_OF_PERICENTER":"79.6840","NORAD_CAT_ID":"46557","MEAN_ANOMALY":"280.4277","EPHEMERIS_TYPE":"0","SEMIMAJOR_AXIS":"6925.324","PERIAPSIS":"546.402","DECAY_DATE":null,"REF_FRAME":"TEME","GP_ID":"194679514","MEAN_ELEMENT_THEORY":"SGP4","MEAN_MOTION_DDOT":"0.0000000000000","OBJECT_NAME":"STARLINK-1679","CENTER_NAME":"EARTH","RA_OF_ASC_NODE":"69.6938","FILE":"3284266","TIME_SYSTEM":"UTC","MEAN_MOTION":"15.06407992","LAUNCH_DATE":"2020-10-06","PERIOD":"95.592","EPOCH":"2022-01-26T12:02:49.132320","REV_AT_EPOCH":"7315","OBJECT_TYPE":"PAYLOAD","BSTAR":"0.00002381800000","CLASSIFICATION_TYPE":"U","ELEMENT_SET_NO":"999","OBJECT_ID":"2020-070AB","MEAN_MOTION_DOT":"0.00000074","COUNTRY_CODE":"US"},{"TLE_LINE2":"2 46558  53.0539  69.6523 0001630  89.0681 271.0495 15.06404207 73128","ECCENTRICITY":"0.00016300","ARG_OF_PERICENTER":"89.0681","INCLINATION":"53.0539","SITE":"AFETR","APOAPSIS":"548.329","TLE_LINE1":"1 46558U 20070AC  22026.50933108 -.00000281  00000-0  21188-7 0  9997","RCS_SIZE":"LARGE","MEAN_ANOMALY":"271.0495","EPHEMERIS_TYPE":"0","SEMIMAJOR_AXIS":"6925.336","PERIAPSIS":"546.072","NORAD_CAT_ID":"46558","CENTER_NAME":"EARTH","RA_OF_ASC_NODE":"69.6523","MEAN_MOTION_DDOT":"0.0000000000000","OBJECT_NAME":"STARLINK-1680","LAUNCH_DATE":"2020-10-06","FILE":"3284266","MEAN_MOTION":"15.06404207","TIME_SYSTEM":"UTC","DECAY_DATE":null,"REF_FRAME":"TEME","MEAN_ELEMENT_THEORY":"SGP4","GP_ID":"194680765","ELEMENT_SET_NO":"999","CLASSIFICATION_TYPE":"U","COUNTRY_CODE":"US","MEAN_MOTION_DOT":"-0.00000281","OBJECT_ID":"2020-070AC","EPOCH":"2022-01-26T12:13:26.205312","PERIOD":"95.592","REV_AT_EPOCH":"7312","BSTAR":"0.00000002118800","OBJECT_TYPE":"PAYLOAD"},{"TLE_LINE1":"1 46559U 20070AD  22026.56416299 -.00001018  00000-0 -49479-4 0  9991","RCS_SIZE":"LARGE","ARG_OF_PERICENTER":"72.8975","INCLINATION":"53.0550","SITE":"AFETR","APOAPSIS":"548.162","TLE_LINE2":"2 46559  53.0550  54.4087 0001381  72.8975 287.2165 15.06402612 73376","ECCENTRICITY":"0.00013810","NORAD_CAT_ID":"46559","PERIAPSIS":"546.249","MEAN_ANOMALY":"287.2165","SEMIMAJOR_AXIS":"6925.341","EPHEMERIS_TYPE":"0","MEAN_ELEMENT_THEORY":"SGP4","GP_ID":"194688046","REF_FRAME":"TEME","DECAY_DATE":null,"LAUNCH_DATE":"2020-10-06","TIME_SYSTEM":"UTC","FILE":"3284475","MEAN_MOTION":"15.06402612","CENTER_NAME":"EARTH","RA_OF_ASC_NODE":"54.4087","OBJECT_NAME":"STARLINK-1681","MEAN_MOTION_DDOT":"0.0000000000000","OBJECT_TYPE":"PAYLOAD","BSTAR":"-0.00004947900000","PERIOD":"95.592","EPOCH":"2022-01-26T13:32:23.682336","REV_AT_EPOCH":"7337","MEAN_MOTION_DOT":"-0.00001018","COUNTRY_CODE":"US","OBJECT_ID":"2020-070AD","ELEMENT_SET_NO":"999","CLASSIFICATION_TYPE":"U"},{"NORAD_CAT_ID":"46560","SEMIMAJOR_AXIS":"6925.326","EPHEMERIS_TYPE":"0","MEAN_ANOMALY":"287.1605","PERIAPSIS":"546.230","RCS_SIZE":"LARGE","TLE_LINE1":"1 46560U 20070AE  22026.52407213 -.00000450  00000-0 -11288-4 0  9991","ECCENTRICITY":"0.00013870","TLE_LINE2":"2 46560  53.0536  69.5932 0001387  72.9536 287.1605 15.06407504 73168","APOAPSIS":"548.151","INCLINATION":"53.0536","SITE":"AFETR","ARG_OF_PERICENTER":"72.9536","REV_AT_EPOCH":"7316","EPOCH":"2022-01-26T12:34:39.832032","PERIOD":"95.592","OBJECT_TYPE":"PAYLOAD","BSTAR":"-0.00001128800000","ELEMENT_SET_NO":"999","CLASSIFICATION_TYPE":"U","OBJECT_ID":"2020-070AE","MEAN_MOTION_DOT":"-0.00000450","COUNTRY_CODE":"US","REF_FRAME":"TEME","DECAY_DATE":null,"GP_ID":"194688083","MEAN_ELEMENT_THEORY":"SGP4","OBJECT_NAME":"STARLINK-1706","MEAN_MOTION_DDOT":"0.0000000000000","RA_OF_ASC_NODE":"69.5932","CENTER_NAME":"EARTH","MEAN_MOTION":"15.06407504","FILE":"3284478","TIME_SYSTEM":"UTC","LAUNCH_DATE":"2020-10-06"},{"CENTER_NAME":"EARTH","RA_OF_ASC_NODE":"69.5343","OBJECT_NAME":"STARLINK-1709","MEAN_MOTION_DDOT":"0.0000000000000","LAUNCH_DATE":"2020-10-06","FILE":"3284266","MEAN_MOTION":"15.06407846","TIME_SYSTEM":"UTC","DECAY_DATE":null,"REF_FRAME":"TEME","MEAN_ELEMENT_THEORY":"SGP4","GP_ID":"194680014","CLASSIFICATION_TYPE":"U","ELEMENT_SET_NO":"999","COUNTRY_CODE":"US","MEAN_MOTION_DOT":"0.00002946","OBJECT_ID":"2020-070AF","EPOCH":"2022-01-26T12:55:52.968000","PERIOD":"95.592","REV_AT_EPOCH":"7315","OBJECT_TYPE":"PAYLOAD","BSTAR":"0.00021653000000","TLE_LINE2":"2 46561  53.0545  69.5343 0001271  76.9814 283.1317 15.06407846 73154","ECCENTRICITY":"0.00012710","ARG_OF_PERICENTER":"76.9814","SITE":"AFETR","INCLINATION":"53.0545","APOAPSIS":"548.070","TLE_LINE1":"1 46561U 20070AF  22026.53880750  .00002946  00000-0  21653-3 0  9990","RCS_SIZE":"LARGE","MEAN_ANOMALY":"283.1317","EPHEMERIS_TYPE":"0","SEMIMAJOR_AXIS":"6925.325","PERIAPSIS":"546.309","NORAD_CAT_ID":"46561"},{"PERIAPSIS":"546.222","MEAN_ANOMALY":"280.0696","SEMIMAJOR_AXIS":"6925.331","EPHEMERIS_TYPE":"0","NORAD_CAT_ID":"46562","INCLINATION":"53.0546","SITE":"AFETR","APOAPSIS":"548.171","ARG_OF_PERICENTER":"80.0451","TLE_LINE2":"2 46562  53.0546  64.5202 0001407  80.0451 280.0696 15.06405633 73225","ECCENTRICITY":"0.00014070","RCS_SIZE":"LARGE","TLE_LINE1":"1 46562U 20070AG  22026.54111804 -.00000879  00000-0 -40126-4 0  9991","OBJECT_ID":"2020-070AG","COUNTRY_CODE":"US","MEAN_MOTION_DOT":"-0.00000879","CLASSIFICATION_TYPE":"U","ELEMENT_SET_NO":"999","OBJECT_TYPE":"PAYLOAD","BSTAR":"-0.00004012600000","PERIOD":"95.592","EPOCH":"2022-01-26T12:59:12.598656","REV_AT_EPOCH":"7322","FILE":"3284266","MEAN_MOTION":"15.06405633","TIME_SYSTEM":"UTC","LAUNCH_DATE":"2020-10-06","OBJECT_NAME":"STARLINK-1714","MEAN_MOTION_DDOT":"0.0000000000000","CENTER_NAME":"EARTH","RA_OF_ASC_NODE":"64.5202","GP_ID":"194680266","MEAN_ELEMENT_THEORY":"SGP4","DECAY_DATE":null,"REF_FRAME":"TEME"},{"OBJECT_TYPE":"PAYLOAD","BSTAR":"-0.00005879300000","EPOCH":"2022-01-26T09:21:36.080352","PERIOD":"95.592","REV_AT_EPOCH":"7320","COUNTRY_CODE":"US","MEAN_MOTION_DOT":"-0.00001157","OBJECT_ID":"2020-070AH","CLASSIFICATION_TYPE":"U","ELEMENT_SET_NO":"999","MEAN_ELEMENT_THEORY":"SGP4","GP_ID":"194680516","DECAY_DATE":null,"REF_FRAME":"TEME","LAUNCH_DATE":"2020-10-06","TIME_SYSTEM":"UTC","FILE":"3284266","MEAN_MOTION":"15.06402524","CENTER_NAME":"EARTH","RA_OF_ASC_NODE":"65.1823","OBJECT_NAME":"STARLINK-1730","MEAN_MOTION_DDOT":"0.0000000000000","NORAD_CAT_ID":"46563","PERIAPSIS":"546.195","MEAN_ANOMALY":"296.9003","EPHEMERIS_TYPE":"0","SEMIMAJOR_AXIS":"6925.341","TLE_LINE1":"1 46563U 20070AH  22026.39000093 -.00001157  00000-0 -58793-4 0  9991","RCS_SIZE":"LARGE","ARG_OF_PERICENTER":"63.2136","SITE":"AFETR","INCLINATION":"53.0555","APOAPSIS":"548.217","TLE_LINE2":"2 46563  53.0555  65.1823 0001460  63.2136 296.9003 15.06402524 73206","ECCENTRICITY":"0.00014600"},{"OBJECT_ID":"2020-070AJ","COUNTRY_CODE":"US","MEAN_MOTION_DOT":"0.00011271","ELEMENT_SET_NO":"999","CLASSIFICATION_TYPE":"U","BSTAR":"0.00077456000000","OBJECT_TYPE":"PAYLOAD","PERIOD":"95.593","EPOCH":"2022-01-26T13:41:40.962336","REV_AT_EPOCH":"7324","MEAN_MOTION":"15.06389595","FILE":"3284479","TIME_SYSTEM":"UTC","LAUNCH_DATE":"2020-10-06","MEAN_MOTION_DDOT":"0.0000000000000","OBJECT_NAME":"STARLINK-1733","CENTER_NAME":"EARTH","RA_OF_ASC_NODE":"64.3922","GP_ID":"194688370","MEAN_ELEMENT_THEORY":"SGP4","REF_FRAME":"TEME","DECAY_DATE":null,"PERIAPSIS":"546.060","MEAN_ANOMALY":"281.1558","SEMIMAJOR_AXIS":"6925.380","EPHEMERIS_TYPE":"0","NORAD_CAT_ID":"46564","INCLINATION":"53.0546","SITE":"AFETR","APOAPSIS":"548.431","ARG_OF_PERICENTER":"78.9624","TLE_LINE2":"2 46564  53.0546  64.3922 0001712  78.9624 281.1558 15.06389595 73240","ECCENTRICITY":"0.00017120","RCS_SIZE":"LARGE","TLE_LINE1":"1 46564U 20070AJ  22026.57061299  .00011271  00000-0  77456-3 0  9999"},{"SEMIMAJOR_AXIS":"6925.343","EPHEMERIS_TYPE":"0","MEAN_ANOMALY":"287.4858","PERIAPSIS":"546.109","NORAD_CAT_ID":"46565","ECCENTRICITY":"0.00015870","TLE_LINE2":"2 46565  53.0584  64.7735 0001587  72.6304 287.4858 15.06401685 73219","ARG_OF_PERICENTER":"72.6304","APOAPSIS":"548.307","INCLINATION":"53.0584","SITE":"AFETR","TLE_LINE1":"1 46565U 20070AK  22026.48214199  .00003539  00000-0  25633-3 0  9997","RCS_SIZE":"LARGE","CLASSIFICATION_TYPE":"U","ELEMENT_SET_NO":"999","COUNTRY_CODE":"US","MEAN_MOTION_DOT":"0.00003539","OBJECT_ID":"2020-070AK","REV_AT_EPOCH":"7321","EPOCH":"2022-01-26T11:34:17.067936","PERIOD":"95.592","OBJECT_TYPE":"PAYLOAD","BSTAR":"0.00025633000000","RA_OF_ASC_NODE":"64.7735","CENTER_NAME":"EARTH","OBJECT_NAME":"STARLINK-1735","MEAN_MOTION_DDOT":"0.0000000000000","LAUNCH_DATE":"2020-10-06","FILE":"3284266","MEAN_MOTION":"15.06401685","TIME_SYSTEM":"UTC","DECAY_DATE":null,"REF_FRAME":"TEME","MEAN_ELEMENT_THEORY":"SGP4","GP_ID":"194679515"},{"CENTER_NAME":"EARTH","RA_OF_ASC_NODE":"64.8474","OBJECT_NAME":"STARLINK-1740","MEAN_MOTION_DDOT":"0.0000000000000","LAUNCH_DATE":"2020-10-06","TIME_SYSTEM":"UTC","FILE":"3284479","MEAN_MOTION":"15.06401586","REF_FRAME":"TEME","DECAY_DATE":null,"MEAN_ELEMENT_THEORY":"SGP4","GP_ID":"194688115","ELEMENT_SET_NO":"999","CLASSIFICATION_TYPE":"U","COUNTRY_CODE":"US","MEAN_MOTION_DOT":"-0.00000777","OBJECT_ID":"2020-070AL","PERIOD":"95.592","EPOCH":"2022-01-26T11:13:04.247328","REV_AT_EPOCH":"7289","OBJECT_TYPE":"PAYLOAD","BSTAR":"-0.00003325100000","TLE_LINE2":"2 46566  53.0534  64.8474 0001302  64.5031 295.6092 15.06401586 72892","ECCENTRICITY":"0.00013020","ARG_OF_PERICENTER":"64.5031","INCLINATION":"53.0534","SITE":"AFETR","APOAPSIS":"548.110","TLE_LINE1":"1 46566U 20070AL  22026.46741027 -.00000777  00000-0 -33251-4 0  9990","RCS_SIZE":"LARGE","MEAN_ANOMALY":"295.6092","EPHEMERIS_TYPE":"0","SEMIMAJOR_AXIS":"6925.344","PERIAPSIS":"546.307","NORAD_CAT_ID":"46566"}];
